NORAD_CAT_ID,OBJECT_NAME,OBJECT_TYPE,EPOCH,MEAN_MOTION,ECCENTRICITY,INCLINATION,RA_OF_ASC_NODE,ARG_OF_PERICENTER,MEAN_ANOMALY,BSTAR,MEAN_MOTION_DOT,MEAN_MOTION_DDOT,TLE_LINE0,TLE_LINE1,TLE_LINE2,SEMIMAJOR_AXIS,PERIOD,APOGEE,PERIGEE,DECAYED
55931.0,STARLINK-5897,PAYLOAD,2024-04-22 09:52:02,14.98333878,0.0002352,70.0023,234.6306,253.4964,106.5936,0.00019272,2.207e-05,0.0,0 STARLINK-5897,1 55931U 23037T   24113.41114097  .00002207  00000-0  19272-3 0  9991,2 55931  70.0023 234.6306 0002352 253.4964 106.5936 14.98333878 61030,6950.181,96.107,573.681,570.411,0.0
55931.0,STARLINK-5897,PAYLOAD,2024-04-22 17:52:41,14.98349054,0.0002522,70.0016,233.7908,246.4712,113.6182,0.00029837,3.471e-05,0.0,0 STARLINK-5897,1 55931U 23037T   24113.74492648  .00003471  00000-0  29837-3 0  9990,2 55931  70.0016 233.7908 0002522 246.4712 113.6182 14.98349054 61082,6950.134,96.106,573.752,570.246,0.0
55931.0,STARLINK-5897,PAYLOAD,2024-04-23 11:30:12,14.98313731,0.000272,69.9994,231.9339,261.761,98.3241,0.00035978,4.201e-05,0.0,0 STARLINK-5897,1 55931U 23037T   24114.47930564  .00004201  00000-0  35978-3 0  9990,2 55931  69.9994 231.9339 0002720 261.7610  98.3241 14.98313731 61199,6950.243,96.108,573.999,570.218,0.0
55931.0,STARLINK-5897,PAYLOAD,2024-04-23 14:42:28,14.98315059,0.00029,70.0002,231.5983,271.4164,88.6663,0.00027381,3.174e-05,0.0,0 STARLINK-5897,1 55931U 23037T   24114.61282868  .00003174  00000-0  27381-3 0  9990,2 55931  70.0002 231.5983 0002900 271.4164  88.6663 14.98315059 60874,6950.239,96.108,574.12,570.089,0.0
55931.0,STARLINK-5897,PAYLOAD,2024-04-23 17:54:44,14.98314825,0.0002363,70.0025,231.2637,257.5618,102.5277,0.0002855,3.314e-05,0.0,0 STARLINK-5897,1 55931U 23037T   24114.74634905  .00003314  00000-0  28550-3 0  9992,2 55931  70.0025 231.2637 0002363 257.5618 102.5277 14.98314825 60893,6950.24,96.108,573.747,570.462,0.0
55931.0,STARLINK-5897,PAYLOAD,2024-04-24 11:32:13,14.9835273,0.0002007,70.0028,229.4136,226.1041,133.9953,-0.00048034,-5.822e-05,0.0,0 STARLINK-5897,1 55931U 23037T   24115.48070703 -.00005822  00000-0 -48034-3 0  9991,2 55931  70.0028 229.4136 0002007 226.1041 133.9953 14.98352730 61343,6950.123,96.106,573.382,570.593,0.0
55931.0,STARLINK-5897,PAYLOAD,2024-04-24 16:20:37,14.98334871,0.0001963,70.0032,228.909,238.7594,121.3373,-0.00016305,-2.038e-05,0.0,0 STARLINK-5897,1 55931U 23037T   24115.68098829 -.00002038  00000-0 -16305-3 0  9994,2 55931  70.0032 228.9090 0001963 238.7594 121.3373 14.98334871 61379,6950.178,96.107,573.407,570.679,0.0
55931.0,STARLINK-5897,PAYLOAD,2024-04-25 14:46:29,14.98324417,0.000217,70.003,226.5529,263.8651,96.2261,0.00010281,1.134e-05,0.0,0 STARLINK-5897,1 55931U 23037T   24116.61562441  .00001134  00000-0  10281-3 0  9995,2 55931  70.0030 226.5529 0002170 263.8651  96.2261 14.98324417 61171,6950.21,96.107,573.583,570.567,0.0
55931.0,STARLINK-5897,PAYLOAD,2024-04-25 16:22:38,14.98322761,0.0002011,70.0031,226.3848,268.2425,91.8504,0.00014672,1.658e-05,0.0,0 STARLINK-5897,1 55931U 23037T   24116.68238495  .00001658  00000-0  14672-3 0  9990,2 55931  70.0031 226.3848 0002011 268.2425  91.8504 14.98322761 61526,6950.215,96.107,573.478,570.683,0.0
55931.0,STARLINK-5897,PAYLOAD,2024-04-26 14:48:30,14.98328335,0.0002696,70.0011,224.0257,260.476,99.6095,3.3751e-05,3.1e-06,0.0,0 STARLINK-5897,1 55931U 23037T   24117.61702330  .00000310  00000-0  33751-4 0  9992,2 55931  70.0011 224.0257 0002696 260.4760  99.6095 14.98328335 61320,6950.198,96.107,573.937,570.189,0.0
55931.0,STARLINK-5897,PAYLOAD,2024-04-26 18:00:46,14.98332833,0.0002827,70.0002,223.6875,265.7375,94.3461,4.8924e-05,4.91e-06,0.0,0 STARLINK-5897,1 55931U 23037T   24117.75053984  .00000491  00000-0  48924-4 0  9999,2 55931  70.0002 223.6875 0002827 265.7375  94.3461 14.98332833 61683,6950.184,96.107,574.014,570.084,0.0
55931.0,STARLINK-5897,PAYLOAD,2024-04-27 13:14:22,14.98347985,0.0003262,70.0002,221.6686,271.8748,88.2038,0.0001287,1.444e-05,0.0,0 STARLINK-5897,1 55931U 23037T   24118.55164400  .00001444  00000-0  12870-3 0  9993,2 55931  70.0002 221.6686 0003262 271.8748  88.2038 14.98347985 61807,6950.137,96.106,574.269,569.735,0.0
55931.0,STARLINK-5897,PAYLOAD,2024-04-27 16:26:38,14.98346269,0.0002764,70.0009,221.332,264.5115,95.5729,0.00015191,1.721e-05,0.0,0 STARLINK-5897,1 55931U 23037T   24118.68516314  .00001721  00000-0  15191-3 0  9999,2 55931  70.0009 221.3320 0002764 264.5115  95.5729 14.98346269 61485,6950.143,96.106,573.929,570.087,0.0
55931.0,STARLINK-5897,PAYLOAD,2024-04-28 13:16:27,14.98296893,0.0002947,69.9999,219.1438,266.0858,93.9964,-0.00038668,-4.7e-05,0.0,0 STARLINK-5897,1 55931U 23037T   24119.55309189 -.00004700  00000-0 -38668-3 0  9992,2 55931  69.9999 219.1438 0002947 266.0858  93.9964 14.98296893 61951,6950.295,96.109,574.209,570.112,0.0
55931.0,STARLINK-5897,PAYLOAD,2024-04-28 16:28:43,14.98301036,0.0003347,70.0005,218.8106,268.9524,91.1251,-0.00029132,-3.565e-05,0.0,0 STARLINK-5897,1 55931U 23037T   24119.68660961 -.00003565  00000-0 -29132-3 0  9998,2 55931  70.0005 218.8106 0003347 268.9524  91.1251 14.98301036 61636,6950.282,96.109,574.474,569.821,0.0
55931.0,STARLINK-5897,PAYLOAD,2024-04-29 00:29:22,14.98314704,0.0002713,70.0014,217.9663,262.164,97.9211,-0.00024109,-2.967e-05,0.0,0 STARLINK-5897,1 55931U 23037T   24120.02040397 -.00002967  00000-0 -24109-3 0  9997,2 55931  70.0014 217.9663 0002713 262.1640  97.9211 14.98314704 62025,6950.24,96.108,573.991,570.22,0.0
55931.0,STARLINK-5897,PAYLOAD,2024-04-29 13:18:26,14.98323044,0.0002738,70.0024,216.6184,268.1905,91.894,-3.5003e-05,-5.1e-06,0.0,0 STARLINK-5897,1 55931U 23037T   24120.55447449 -.00000510  00000-0 -35003-4 0  9992,2 55931  70.0024 216.6184 0002738 268.1905  91.8940 14.98323044 62105,6950.214,96.107,573.982,570.176,0.0
55931.0,STARLINK-5897,PAYLOAD,2024-04-29 16:30:42,14.98330602,0.0002339,70.0024,216.2815,272.4375,87.6516,5.837e-05,6.04e-06,0.0,0 STARLINK-5897,1 55931U 23037T   24120.68798804  .00000604  00000-0  58370-4 0  9994,2 55931  70.0024 216.2815 0002339 272.4375  87.6516 14.98330602 62120,6950.191,96.107,573.682,570.43,0.0
55931.0,STARLINK-5897,PAYLOAD,2024-04-30 13:20:25,14.98325781,0.0002827,70.0007,214.0948,263.9362,96.1475,0.00051665,6.076e-05,0.0,0 STARLINK-5897,1 55931U 23037T   24121.55585433  .00006076  00000-0  51665-3 0  9991,2 55931  70.0007 214.0948 0002827 263.9362  96.1475 14.98325781 62252,6950.206,96.107,574.036,570.106,0.0
55931.0,STARLINK-5897,PAYLOAD,2024-04-30 14:56:33,14.98324253,0.0002569,70.0014,213.9252,267.9851,92.1014,0.00052552,6.182e-05,0.0,0 STARLINK-5897,1 55931U 23037T   24121.62261554  .00006182  00000-0  52552-3 0  9998,2 55931  70.0014 213.9252 0002569 267.9851  92.1014 14.98324253 61927,6950.211,96.107,573.861,570.29,0.0
55931.0,STARLINK-5897,PAYLOAD,2024-04-30 16:32:41,14.98325975,0.0002567,70.0015,213.7569,268.0399,92.0466,0.00053336,6.276e-05,0.0,0 STARLINK-5897,1 55931U 23037T   24121.68937437  .00006276  00000-0  53336-3 0  9999,2 55931  70.0015 213.7569 0002567 268.0399  92.0466 14.98325975 61937,6950.205,96.107,573.854,570.286,0.0
55931.0,STARLINK-5897,PAYLOAD,2024-04-30 22:57:14,14.98331164,0.0002756,70.0013,213.0828,276.0626,84.0219,0.00026825,3.109e-05,0.0,0 STARLINK-5897,1 55931U 23037T   24121.95641858  .00003109  00000-0  26825-3 0  9993,2 55931  70.0013 213.0828 0002756 276.0626  84.0219 14.98331164 61976,6950.189,96.107,573.97,570.139,0.0
55931.0,STARLINK-5897,PAYLOAD,2024-05-01 22:59:15,14.98383785,0.0002019,70.0047,210.5632,269.3031,90.7897,-0.00097424,-0.00011713,0.0,0 STARLINK-5897,1 55931U 23037T   24122.95781300 -.00011713  00000-0 -97424-3 0  9996,2 55931  70.0047 210.5632 0002019 269.3031  90.7897 14.98383785 62462,6950.027,96.104,573.295,570.488,0.0
55931.0,STARLINK-5897,PAYLOAD,2024-05-02 13:24:27,14.98339817,0.0002959,70.0004,209.0465,267.0594,93.0226,-0.00015645,-1.96e-05,0.0,0 STARLINK-5897,1 55931U 23037T   24123.55865684 -.00001960  00000-0 -15645-3 0  9999,2 55931  70.0004 209.0465 0002959 267.0594  93.0226 14.98339817 62553,6950.163,96.106,574.084,569.971,0.0
55931.0,STARLINK-5897,PAYLOAD,2024-05-02 15:00:35,14.98340097,0.0002893,70.0006,208.8783,266.3156,93.7673,-0.00013782,-1.737e-05,0.0,0 STARLINK-5897,1 55931U 23037T   24123.62541577 -.00001737  00000-0 -13782-3 0  9991,2 55931  70.0006 208.8783 0002893 266.3156  93.7673 14.98340097 62227,6950.162,96.106,574.037,570.016,0.0
55931.0,STARLINK-5897,PAYLOAD,2024-05-03 13:26:27,14.98339749,0.0002965,70.0001,206.521,268.008,92.0739,0.00014621,1.652e-05,0.0,0 STARLINK-5897,1 55931U 23037T   24124.56004231  .00001652  00000-0  14621-3 0  9993,2 55931  70.0001 206.5210 0002965 268.0080  92.0739 14.98339749 62707,6950.163,96.106,574.088,569.967,0.0
55931.0,STARLINK-5897,PAYLOAD,2024-05-03 15:02:35,14.98340746,0.0002957,70.0001,206.3527,268.0773,92.0047,0.00015244,1.727e-05,0.0,0 STARLINK-5897,1 55931U 23037T   24124.62680114  .00001727  00000-0  15244-3 0  9995,2 55931  70.0001 206.3527 0002957 268.0773  92.0047 14.98340746 62370,6950.16,96.106,574.08,569.969,0.0
55931.0,STARLINK-5897,PAYLOAD,2024-05-04 05:27:49,14.98328046,0.000223,70.0,204.8379,275.6132,84.4773,6.5521e-06,-1.5e-07,0.0,0 STARLINK-5897,1 55931U 23037T   24125.22765488 -.00000015  00000-0  65521-5 0  9995,2 55931  70.0000 204.8379 0002230 275.6132  84.4773 14.98328046 62802,6950.199,96.107,573.614,570.514,0.0
55931.0,STARLINK-5897,PAYLOAD,2024-05-04 13:28:30,14.98316906,0.0003122,69.9996,203.9974,272.6934,87.3867,-0.0001739,-2.167e-05,0.0,0 STARLINK-5897,1 55931U 23037T   24125.56146762 -.00002167  00000-0 -17390-3 0  9990,2 55931  69.9996 203.9974 0003122 272.6934  87.3867 14.98316906 62855,6950.233,96.108,574.268,569.929,0.0
55931.0,STARLINK-5897,PAYLOAD,2024-05-05 05:29:51,14.98328348,0.0003057,69.9997,202.3131,271.3463,88.7346,-0.00017374,-2.165e-05,0.0,0 STARLINK-5897,1 55931U 23037T   24126.22906427 -.00002165  00000-0 -17374-3 0  9996,2 55931  69.9997 202.3131 0003057 271.3463  88.7346 14.98328348 62955,6950.198,96.107,574.188,569.938,0.0
